$$SOE
2459580.500000000, A.D. 2022-Jan-01 00:00:00.0000, 1.391637484491717E+08, 3.251060972325128E+08, 5.325987950102296E+07,
2459587.500000000, A.D. 2022-Jan-08 00:00:00.0000, 1.282297337571343E+08, 3.306635194537405E+08, 5.200465483571227E+07,
2459594.500000000, A.D. 2022-Jan-15 00:00:00.0000, 1.171605303933448E+08, 3.358724182590178E+08, 5.069461538450807E+07,
2459601.500000000, A.D. 2022-Jan-22 00:00:00.0000, 1.059686972435971E+08, 3.407298546438307E+08, 4.933152663627708E+07,
2459608.500000000, A.D. 2022-Jan-29 00:00:00.0000, 9.466678402692720E+07, 3.452334356296962E+08, 4.791720377681985E+07,
2459615.500000000, A.D. 2022-Feb-05 00:00:00.0000, 8.326730147877054E+07, 3.493813048090802E+08, 4.645350651954725E+07,
2459622.500000000, A.D. 2022-Feb-12 00:00:00.0000, 7.178269489838545E+07, 3.531721302046708E+08, 4.494233369407409E+07,
2459629.500000000, A.D. 2022-Feb-19 00:00:00.0000, 6.022531983216055E+07, 3.566050919500068E+08, 4.338561793492559E+07,
2459636.500000000, A.D. 2022-Feb-26 00:00:00.0000, 4.860741865733284E+07, 3.596798692056935E+08, 4.178532055576378E+07,
2459643.500000000, A.D. 2022-Mar-05 00:00:00.0000, 3.694109828462529E+07, 3.623966258366831E+08, 4.014342656698786E+07,
2459650.500000000, A.D. 2022-Mar-12 00:00:00.0000, 2.523830924686912E+07, 3.647559949294369E+08, 3.846193983184551E+07,
2459657.500000000, A.D. 2022-Mar-19 00:00:00.0000, 1.351082627602628E+07, 3.667590623207811E+08, 3.674287837526317E+07,
2459664.500000000, A.D. 2022-Mar-26 00:00:00.0000, 1.770230408846114E+06, 3.684073492737984E+08, 3.498826985883935E+07,
2459671.500000000, A.D. 2022-Apr-02 00:00:00.0000, -9.972107306062536E+06, 3.697027943823898E+08, 3.320014722478688E+07,
2459678.500000000, A.D. 2022-Apr-09 00:00:00.0000, -2.170504023487141E+07, 3.706477348420256E+08, 3.138054449555591E+07,
2459685.500000000, A.D. 2022-Apr-16 00:00:00.0000, -3.341765838032024E+07, 3.712448878688721E+08, 2.953149275905964E+07,
2459692.500000000, A.D. 2022-Apr-23 00:00:00.0000, -4.509929969448368E+07, 3.714973334752974E+08, 2.765501655169888E+07,
2459699.500000000, A.D. 2022-Apr-30 00:00:00.0000, -5.673956238495249E+07, 3.714084964677930E+08, 2.575313063211289E+07,
2459706.500000000, A.D. 2022-May-07 00:00:00.0000, -6.832831519672805E+07, 3.709821257907693E+08, 2.382783670764750E+07,
2459713.500000000, A.D. 2022-May-14 00:00:00.0000, -7.985570433321971E+07, 3.702222743503853E+08, 2.188112023638795E+07,
2459720.500000000, A.D. 2022-May-21 00:00:00.0000, -9.131215909843461E+07, 3.691332801642427E+08, 1.991494754169442E+07,
2459727.500000000, A.D. 2022-May-28 00:00:00.0000, -1.026883968029227E+08, 3.677197479745529E+08, 1.793126318751389E+07,
2459734.500000000, A.D. 2022-Jun-04 00:00:00.0000, -1.139754267292838E+08, 3.659865311092744E+08, 1.593198758541058E+07,
2459741.500000000, A.D. 2022-Jun-11 00:00:00.0000, -1.251645530704347E+08, 3.639387136318300E+08, 1.391901484208864E+07,
2459748.500000000, A.D. 2022-Jun-18 00:00:00.0000, -1.362473768610714E+08, 3.615815928257395E+08, 1.189421081564792E+07,
2459755.500000000, A.D. 2022-Jun-25 00:00:00.0000, -1.472157969448354E+08, 3.589206620411928E+08, 9.859411353478283E+06,
2459762.500000000, A.D. 2022-Jul-02 00:00:00.0000, -1.580620099149227E+08, 3.559615938882821E+08, 7.816420691270307E+06,
2459769.500000000, A.D. 2022-Jul-09 00:00:00.0000, -1.687785087067757E+08, 3.527102239890769E+08, 5.767009988393545E+06,
2459776.500000000, A.D. 2022-Jul-16 00:00:00.0000, -1.793580799664509E+08, 3.491725363990803E+08, 3.712916086373940E+06,
2459783.500000000, A.D. 2022-Jul-23 00:00:00.0000, -1.897938024601123E+08, 3.453546508001765E+08, 1.655840689929888E+06,
2459790.500000000, A.D. 2022-Jul-30 00:00:00.0000, -2.000790465017512E+08, 3.412628081278216E+08, -4.025503202368021E+05,
2459797.500000000, A.D. 2022-Aug-06 00:00:00.0000, -2.102074708614560E+08, 3.369033552864476E+08, -2.460627728500113E+06,
2459804.500000000, A.D. 2022-Aug-13 00:00:00.0000, -2.201730180417068E+08, 3.322827317153449E+08, -4.516799687593788E+06,
2459811.500000000, A.D. 2022-Aug-20 00:00:00.0000, -2.299699095483822E+08, 3.274074573086731E+08, -6.569512190856308E+06,
2459818.500000000, A.D. 2022-Aug-27 00:00:00.0000, -2.395926411395473E+08, 3.222841209621301E+08, -8.617249388210684E+06,
2459825.500000000, A.D. 2022-Sep-03 00:00:00.0000, -2.490359778522270E+08, 3.169193696290319E+08, -1.065853378631702E+07,
2459832.500000000, A.D. 2022-Sep-10 00:00:00.0000, -2.582949487626407E+08, 3.113198978984518E+08, -1.269192634732002E+07,
2459839.500000000, A.D. 2022-Sep-17 00:00:00.0000, -2.673648414950115E+08, 3.054924380788262E+08, -1.471602649661864E+07,
2459846.500000000, A.D. 2022-Sep-24 00:00:00.0000, -2.762411964630212E+08, 2.994437507202666E+08, -1.672947205680323E+07,
2459853.500000000, A.D. 2022-Oct-01 00:00:00.0000, -2.849198006471583E+08, 2.931806155384940E+08, -1.873093913931753E+07,
2459860.500000000, A.D. 2022-Oct-08 00:00:00.0000, -2.933966805403087E+08, 2.867098232484583E+08, -2.071914199654074E+07,
2459867.500000000, A.D. 2022-Oct-15 00:00:00.0000, -3.016680952291382E+08, 2.800381694922584E+08, -2.269283265888929E+07,
2459874.500000000, A.D. 2022-Oct-22 00:00:00.0000, -3.097305318246515E+08, 2.731724491626891E+08, -2.465080030245578E+07,
2459881.500000000, A.D. 2022-Oct-29 00:00:00.0000, -3.175807007686505E+08, 2.661194485111234E+08, -2.659187079511793E+07,
2459888.500000000, A.D. 2022-Nov-05 00:00:00.0000, -3.252155289386351E+08, 2.588859377567043E+08, -2.851490639511883E+07,
2459895.500000000, A.D. 2022-Nov-12 00:00:00.0000, -3.326321525412284E+08, 2.514786654415394E+08, -3.041880532430100E+07,
2459902.500000000, A.D. 2022-Nov-19 00:00:00.0000, -3.398279105358686E+08, 2.439043535584849E+08, -3.230250123400929E+07,
2459909.500000000, A.D. 2022-Nov-26 00:00:00.0000, -3.468003383445560E+08, 2.361696930336877E+08, -3.416496262531881E+07,
2459916.500000000, A.D. 2022-Dec-03 00:00:00.0000, -3.535471616977630E+08, 2.282813395309736E+08, -3.600519224434840E+07,
2459923.500000000, A.D. 2022-Dec-10 00:00:00.0000, -3.600662905857283E+08, 2.202459095757140E+08, -3.782222645960026E+07,
2459930.500000000, A.D. 2022-Dec-17 00:00:00.0000, -3.663558133035399E+08, 2.120699769526792E+08, -3.961513462963358E+07,
2459937.500000000, A.D. 2022-Dec-24 00:00:00.0000, -3.724139904920499E+08, 2.037600692920548E+08, -4.138301848015859E+07,
2459944.500000000, A.D. 2022-Dec-31 00:00:00.0000, -3.782392488267269E+08, 1.953226649315468E+08, -4.312501151789100E+07,
2459951.500000000, A.D. 2023-Jan-07 00:00:00.0000, -3.838301742400910E+08, 1.867641909975923E+08, -4.484027841678295E+07,
2459958.500000000, A.D. 2023-Jan-14 00:00:00.0000, -3.891855066529818E+08, 1.780910231837092E+08, -4.652801415863967E+07,
2459965.500000000, A.D. 2023-Jan-21 00:00:00.0000, -3.943041368673886E+08, 1.693094840369397E+08, -4.818744313151633E+07,
2459972.500000000, A.D. 2023-Jan-28 00:00:00.0000, -3.991851019564094E+08, 1.604258395414943E+08, -4.981781854055848E+07,
2459979.500000000, A.D. 2023-Feb-04 00:00:00.0000, -4.038275793611273E+08, 1.514462970094329E+08, -5.141842186597674E+07,
2459986.500000000, A.D. 2023-Feb-11 00:00:00.0000, -4.082308814936731E+08, 1.423770040677640E+08, -5.298856222135326E+07,
2459993.500000000, A.D. 2023-Feb-18 00:00:00.0000, -4.123944509132258E+08, 1.332240479049234E+08, -5.452757567597706E+07,
2460000.500000000, A.D. 2023-Feb-25 00:00:00.0000, -4.163178558128684E+08, 1.239934546016983E+08, -5.603482457997617E+07,
2460007.500000000, A.D. 2023-Mar-04 00:00:00.0000, -4.200007857143763E+08, 1.146911885519579E+08, -5.750969690097164E+07,
2460014.500000000, A.D. 2023-Mar-11 00:00:00.0000, -4.234430473411488E+08, 1.053231519602720E+08, -5.895160557547697E+07,
2460021.500000000, A.D. 2023-Mar-18 00:00:00.0000, -4.266445606210017E+08, 9.589518435379791E+07, -6.035998788394955E+07,
2460028.500000000, A.D. 2023-Mar-25 00:00:00.0000, -4.296053546144268E+08, 8.641306204860017E+07, -6.173430487255566E+07,
2460035.500000000, A.D. 2023-Apr-01 00:00:00.0000, -4.323255629428051E+08, 7.688249795185527E+07, -6.307404082905903E+07,
2460042.500000000, A.D. 2023-Apr-08 00:00:00.0000, -4.348054193310844E+08, 6.730914291360459E+07, -6.437870265702572E+07,
2460049.500000000, A.D. 2023-Apr-15 00:00:00.0000, -4.370452556021092E+08, 5.769858751139595E+07, -6.564781902561380E+07,
2460056.500000000, A.D. 2023-Apr-22 00:00:00.0000, -4.390455003142254E+08, 4.805636120770024E+07, -6.688093971192137E+07,
2460063.500000000, A.D. 2023-Apr-29 00:00:00.0000, -4.408066753046830E+08, 3.838793112656490E+07, -6.807763520325886E+07,
2460070.500000000, A.D. 2023-May-06 00:00:00.0000, -4.423293918942874E+08, 2.869870222297416E+07, -6.923749625210667E+07,
2460077.500000000, A.D. 2023-May-13 00:00:00.0000, -4.436143477266377E+08, 1.899401794337476E+07, -7.036013336743021E+07,
2460084.500000000, A.D. 2023-May-20 00:00:00.0000, -4.446623240044292E+08, 9.279160879531577E+06, -7.144517630418751E+07,
2460091.500000000, A.D. 2023-May-27 00:00:00.0000, -4.454741829246873E+08, -4.406466204903610E+05, -7.249227357084216E+07,
2460098.500000000, A.D. 2023-Jun-03 00:00:00.0000, -4.460508652507803E+08, -1.016024186599838E+07, -7.350109195769525E+07,
2460105.500000000, A.D. 2023-Jun-10 00:00:00.0000, -4.463933879943653E+08, -1.987452128378480E+07, -7.447131608962980E+07,
2460112.500000000, A.D. 2023-Jun-17 00:00:00.0000, -4.465028421166370E+08, -2.957843999179561E+07, -7.540264801726788E+07,
2460119.500000000, A.D. 2023-Jun-24 00:00:00.0000, -4.463803899276158E+08, -3.926701143617046E+07, -7.629480687238984E+07,
2460126.500000000, A.D. 2023-Jul-01 00:00:00.0000, -4.460272619281900E+08, -4.893530626783810E+07, -7.714752854379052E+07,
2460133.500000000, A.D. 2023-Jul-08 00:00:00.0000, -4.454447547657406E+08, -5.857844964082845E+07, -7.796056515301646E+07,
2460140.500000000, A.D. 2023-Jul-15 00:00:00.0000, -4.446342315775345E+08, -6.819161976675762E+07, -7.873368444442433E+07,
2460147.500000000, A.D. 2023-Jul-22 00:00:00.0000, -4.435971211987230E+08, -7.777004876358777E+07, -7.946666949745630E+07,
$$EOE